[{"OBJECT_NAME":"YAOGAN-40 01B","OBJECT_ID":"2023-139C","EPOCH":"2026-03-09T23:20:46.305024","MEAN_MOTION":14.12430239,"ECCENTRICITY":0.00021969,"INCLINATION":85.9905,"RA_OF_ASC_NODE":304.485,"ARG_OF_PERICENTER":92.1535,"MEAN_ANOMALY":267.99,"EPHEMERIS_TYPE":0,"CLASSIFICATION_TYPE":"U","NORAD_CAT_ID":57832,"ELEMENT_SET_NO":999,"REV_AT_EPOCH":12870,"BSTAR":8.6691881e-5,"MEAN_MOTION_DOT":1.79e-6,"MEAN_MOTION_DDOT":0},{"OBJECT_NAME":"CZ-6A DEB","OBJECT_ID":"2022-151DZ","EPOCH":"2026-03-09T22:01:11.890272","MEAN_MOTION":14.3042884,"ECCENTRICITY":0.01177768,"INCLINATION":98.6552,"RA_OF_ASC_NODE":68.4183,"ARG_OF_PERICENTER":71.5921,"MEAN_ANOMALY":289.8025,"EPHEMERIS_TYPE":0,"CLASSIFICATION_TYPE":"U","NORAD_CAT_ID":54401,"ELEMENT_SET_NO":999,"REV_AT_EPOCH":17227,"BSTAR":0.0019491167,"MEAN_MOTION_DOT":5.428e-5,"MEAN_MOTION_DDOT":0}]
